<?xml version="1.0" encoding="UTF-8"?><kml xmlns="http://earth.google.com/kml/2.0">"
<Folder><name>out/navmap-export.kml</name>
<Style id="style1"><IconStyle><scale>0.5</scale><Icon><href>http://earth.google.com/images/kml-icons/track-directional/track-none.png</href></Icon></IconStyle></Style>
<Style id="style2"><IconStyle><scale>0.8</scale><color>ff00ff00</color><Icon><href>http://maps.google.com/mapfiles/kml/shapes/star.png</href></Icon></IconStyle></Style>
<Style id="style3"><IconStyle><scale>0.6</scale><color>ff808080</color><Icon><href>http://maps.google.com/mapfiles/kml/shapes/forbidden.png</href></Icon></IconStyle></Style>
<Style id="style4"><IconStyle><scale>0.6</scale><color>ff00ff00</color><Icon><href>http://maps.google.com/mapfiles/kml/shapes/placemark_circle.png</href></Icon></IconStyle></Style>
<Style id="lstyle1"><LineStyle><color>FFFF0000</color><width>2</width></LineStyle></Style>
<Style id="lstyle2"><LineStyle><color>FF00FF00</color><width>2</width></LineStyle></Style>
<Style id="lstyle3"><LineStyle><color>FF0000FF</color><width>2</width></LineStyle></Style>
<Folder><name>navigationPoint</name>
<Placemark><description>point_idx=3</description><name>M1</name><styleUrl>style4</styleUrl><Point><altitudeMode>clampToGround</altitudeMode><coordinates>17.3387433,49.0831988</coordinates></Point></Placemark>
<Placemark><description>point_idx=4</description><name>M2</name><styleUrl>style4</styleUrl><Point><altitudeMode>clampToGround</altitudeMode><coordinates>17.3382711,49.0837585</coordinates></Point></Placemark>
<Placemark><description>point_idx=5</description><name>M3</name><styleUrl>style4</styleUrl><Point><altitudeMode>clampToGround</altitudeMode><coordinates>17.3392084,49.0821013</coordinates></Point></Placemark>
<Placemark><description>point_idx=6</description><name>S1</name><styleUrl>style4</styleUrl><Point><altitudeMode>clampToGround</altitudeMode><coordinates>17.3378971,49.0807325</coordinates></Point></Placemark>
<Placemark><description>point_idx=7</description><name>S2</name><styleUrl>style4</styleUrl><Point><altitudeMode>clampToGround</altitudeMode><coordinates>17.3377948,49.0812739</coordinates></Point></Placemark>
<Placemark><description>point_idx=8</description><name>S3</name><styleUrl>style4</styleUrl><Point><altitudeMode>clampToGround</altitudeMode><coordinates>17.3389664,49.0814294</coordinates></Point></Placemark>
<Placemark><description>point_idx=9</description><name>N1</name><styleUrl>style4</styleUrl><Point><altitudeMode>clampToGround</altitudeMode><coordinates>17.3394880,49.0848958</coordinates></Point></Placemark>
<Placemark><description>point_idx=10</description><name>N2</name><styleUrl>style4</styleUrl><Point><altitudeMode>clampToGround</altitudeMode><coordinates>17.3378966,49.0845805</coordinates></Point></Placemark>
<Placemark><description>point_idx=11</description><name>N3</name><styleUrl>style4</styleUrl><Point><altitudeMode>clampToGround</altitudeMode><coordinates>17.3363085,49.0844159</coordinates></Point></Placemark>
<Placemark><description>point_idx=12</description><name>N4</name><styleUrl>style4</styleUrl><Point><altitudeMode>clampToGround</altitudeMode><coordinates>17.3387905,49.0842088</coordinates></Point></Placemark>
<Placemark><description>point_idx=13</description><name>E1</name><styleUrl>style4</styleUrl><Point><altitudeMode>clampToGround</altitudeMode><coordinates>17.3425147,49.0837373</coordinates></Point></Placemark>
<Placemark><description>point_idx=14</description><name>E2</name><styleUrl>style4</styleUrl><Point><altitudeMode>clampToGround</altitudeMode><coordinates>17.3409546,49.0828563</coordinates></Point></Placemark>
<Placemark><description>point_idx=15</description><name>E3</name><styleUrl>style4</styleUrl><Point><altitudeMode>clampToGround</altitudeMode><coordinates>17.3418429,49.0841887</coordinates></Point></Placemark>
<Placemark><description>point_idx=16</description><name>E4</name><styleUrl>style4</styleUrl><Point><altitudeMode>clampToGround</altitudeMode><coordinates>17.3405935,49.0836909</coordinates></Point></Placemark>
<Placemark><description>point_idx=17</description><name>E5</name><styleUrl>style4</styleUrl><Point><altitudeMode>clampToGround</altitudeMode><coordinates>17.3409231,49.0842073</coordinates></Point></Placemark>
<Placemark><description>point_idx=18</description><name>W1</name><styleUrl>style4</styleUrl><Point><altitudeMode>clampToGround</altitudeMode><coordinates>17.3361909,49.0834733</coordinates></Point></Placemark>
<Placemark><description>point_idx=19</description><name>W2</name><styleUrl>style4</styleUrl><Point><altitudeMode>clampToGround</altitudeMode><coordinates>17.3367240,49.0834278</coordinates></Point></Placemark>
</Folder>
<Folder><name>navMapNode</name>
<Placemark><description>node_id=-29501</description><name></name><styleUrl>style1</styleUrl><Point><altitudeMode>clampToGround</altitudeMode><coordinates>17.3366803,49.0835023</coordinates></Point></Placemark>
<Placemark><description>node_id=303799809</description><name></name><styleUrl>style1</styleUrl><Point><altitudeMode>clampToGround</altitudeMode><coordinates>17.3441122,49.0837927</coordinates></Point></Placemark>
<Placemark><description>node_id=951645231</description><name></name><styleUrl>style1</styleUrl><Point><altitudeMode>clampToGround</altitudeMode><coordinates>17.3362467,49.0846634</coordinates></Point></Placemark>
<Placemark><description>node_id=951645249</description><name></name><styleUrl>style1</styleUrl><Point><altitudeMode>clampToGround</altitudeMode><coordinates>17.3363085,49.0844159</coordinates></Point></Placemark>
<Placemark><description>node_id=951645252</description><name></name><styleUrl>style1</styleUrl><Point><altitudeMode>clampToGround</altitudeMode><coordinates>17.3363689,49.0838124</coordinates></Point></Placemark>
<Placemark><description>node_id=951645258</description><name></name><styleUrl>style1</styleUrl><Point><altitudeMode>clampToGround</altitudeMode><coordinates>17.3367240,49.0834278</coordinates></Point></Placemark>
<Placemark><description>node_id=951645280</description><name></name><styleUrl>style1</styleUrl><Point><altitudeMode>clampToGround</altitudeMode><coordinates>17.3391231,49.0835136</coordinates></Point></Placemark>
<Placemark><description>node_id=951645304</description><name></name><styleUrl>style1</styleUrl><Point><altitudeMode>clampToGround</altitudeMode><coordinates>17.3370466,49.0842417</coordinates></Point></Placemark>
<Placemark><description>node_id=951645305</description><name></name><styleUrl>style1</styleUrl><Point><altitudeMode>clampToGround</altitudeMode><coordinates>17.3372254,49.0842800</coordinates></Point></Placemark>
<Placemark><description>node_id=951645306</description><name></name><styleUrl>style1</styleUrl><Point><altitudeMode>clampToGround</altitudeMode><coordinates>17.3373570,49.0840141</coordinates></Point></Placemark>
<Placemark><description>node_id=951645310</description><name></name><styleUrl>style1</styleUrl><Point><altitudeMode>clampToGround</altitudeMode><coordinates>17.3377719,49.0840980</coordinates></Point></Placemark>
<Placemark><description>node_id=951645313</description><name></name><styleUrl>style1</styleUrl><Point><altitudeMode>clampToGround</altitudeMode><coordinates>17.3386153,49.0842728</coordinates></Point></Placemark>
<Placemark><description>node_id=951645316</description><name></name><styleUrl>style1</styleUrl><Point><altitudeMode>clampToGround</altitudeMode><coordinates>17.3386930,49.0843923</coordinates></Point></Placemark>
<Placemark><description>node_id=951645318</description><name></name><styleUrl>style1</styleUrl><Point><altitudeMode>clampToGround</altitudeMode><coordinates>17.3395599,49.0844680</coordinates></Point></Placemark>
<Placemark><description>node_id=951645320</description><name></name><styleUrl>style1</styleUrl><Point><altitudeMode>clampToGround</altitudeMode><coordinates>17.3400916,49.0845832</coordinates></Point></Placemark>
<Placemark><description>node_id=951645322</description><name></name><styleUrl>style1</styleUrl><Point><altitudeMode>clampToGround</altitudeMode><coordinates>17.3402778,49.0847730</coordinates></Point></Placemark>
<Placemark><description>node_id=951645324</description><name></name><styleUrl>style1</styleUrl><Point><altitudeMode>clampToGround</altitudeMode><coordinates>17.3410995,49.0846242</coordinates></Point></Placemark>
<Placemark><description>node_id=951645334</description><name></name><styleUrl>style1</styleUrl><Point><altitudeMode>clampToGround</altitudeMode><coordinates>17.3418429,49.0841887</coordinates></Point></Placemark>
<Placemark><description>node_id=951645335</description><name></name><styleUrl>style1</styleUrl><Point><altitudeMode>clampToGround</altitudeMode><coordinates>17.3421419,49.0840870</coordinates></Point></Placemark>
<Placemark><description>node_id=1109741985</description><name></name><styleUrl>style1</styleUrl><Point><altitudeMode>clampToGround</altitudeMode><coordinates>17.3359766,49.0840770</coordinates></Point></Placemark>
<Placemark><description>node_id=1109742277</description><name></name><styleUrl>style1</styleUrl><Point><altitudeMode>clampToGround</altitudeMode><coordinates>17.3363855,49.0841518</coordinates></Point></Placemark>
<Placemark><description>node_id=2356357025</description><name></name><styleUrl>style1</styleUrl><Point><altitudeMode>clampToGround</altitudeMode><coordinates>17.3383392,49.0822117</coordinates></Point></Placemark>
<Placemark><description>node_id=2356357026</description><name></name><styleUrl>style1</styleUrl><Point><altitudeMode>clampToGround</altitudeMode><coordinates>17.3395270,49.0822578</coordinates></Point></Placemark>
<Placemark><description>node_id=2356357044</description><name></name><styleUrl>style1</styleUrl><Point><altitudeMode>clampToGround</altitudeMode><coordinates>17.3409546,49.0828563</coordinates></Point></Placemark>
<Placemark><description>node_id=2356357047</description><name></name><styleUrl>style1</styleUrl><Point><altitudeMode>clampToGround</altitudeMode><coordinates>17.3381470,49.0829448</coordinates></Point></Placemark>
<Placemark><description>node_id=2356357054</description><name></name><styleUrl>style1</styleUrl><Point><altitudeMode>clampToGround</altitudeMode><coordinates>17.3405243,49.0831606</coordinates></Point></Placemark>
<Placemark><description>node_id=2356357055</description><name></name><styleUrl>style1</styleUrl><Point><altitudeMode>clampToGround</altitudeMode><coordinates>17.3387433,49.0831988</coordinates></Point></Placemark>
<Placemark><description>node_id=2356357058</description><name></name><styleUrl>style1</styleUrl><Point><altitudeMode>clampToGround</altitudeMode><coordinates>17.3405297,49.0833464</coordinates></Point></Placemark>
<Placemark><description>node_id=2356357062</description><name></name><styleUrl>style1</styleUrl><Point><altitudeMode>clampToGround</altitudeMode><coordinates>17.3361909,49.0834733</coordinates></Point></Placemark>
<Placemark><description>node_id=2356357067</description><name></name><styleUrl>style1</styleUrl><Point><altitudeMode>clampToGround</altitudeMode><coordinates>17.3366672,49.0835246</coordinates></Point></Placemark>
<Placemark><description>node_id=2356357069</description><name></name><styleUrl>style1</styleUrl><Point><altitudeMode>clampToGround</altitudeMode><coordinates>17.3376082,49.0835671</coordinates></Point></Placemark>
<Placemark><description>node_id=2356357074</description><name></name><styleUrl>style1</styleUrl><Point><altitudeMode>clampToGround</altitudeMode><coordinates>17.3416614,49.0836673</coordinates></Point></Placemark>
<Placemark><description>node_id=2356357075</description><name></name><styleUrl>style1</styleUrl><Point><altitudeMode>clampToGround</altitudeMode><coordinates>17.3405935,49.0836909</coordinates></Point></Placemark>
<Placemark><description>node_id=2356357076</description><name></name><styleUrl>style1</styleUrl><Point><altitudeMode>clampToGround</altitudeMode><coordinates>17.3375667,49.0837576</coordinates></Point></Placemark>
<Placemark><description>node_id=2356357079</description><name></name><styleUrl>style1</styleUrl><Point><altitudeMode>clampToGround</altitudeMode><coordinates>17.3382711,49.0837585</coordinates></Point></Placemark>
<Placemark><description>node_id=2356357080</description><name></name><styleUrl>style1</styleUrl><Point><altitudeMode>clampToGround</altitudeMode><coordinates>17.3384708,49.0838036</coordinates></Point></Placemark>
<Placemark><description>node_id=2356357083</description><name></name><styleUrl>style1</styleUrl><Point><altitudeMode>clampToGround</altitudeMode><coordinates>17.3366407,49.0838674</coordinates></Point></Placemark>
<Placemark><description>node_id=2356357085</description><name></name><styleUrl>style1</styleUrl><Point><altitudeMode>clampToGround</altitudeMode><coordinates>17.3414632,49.0838604</coordinates></Point></Placemark>
<Placemark><description>node_id=2356357089</description><name></name><styleUrl>style1</styleUrl><Point><altitudeMode>clampToGround</altitudeMode><coordinates>17.3389179,49.0839607</coordinates></Point></Placemark>
<Placemark><description>node_id=2356357091</description><name></name><styleUrl>style1</styleUrl><Point><altitudeMode>clampToGround</altitudeMode><coordinates>17.3411248,49.0839818</coordinates></Point></Placemark>
<Placemark><description>node_id=2356357098</description><name></name><styleUrl>style1</styleUrl><Point><altitudeMode>clampToGround</altitudeMode><coordinates>17.3380836,49.0841571</coordinates></Point></Placemark>
<Placemark><description>node_id=2356357099</description><name></name><styleUrl>style1</styleUrl><Point><altitudeMode>clampToGround</altitudeMode><coordinates>17.3387905,49.0842088</coordinates></Point></Placemark>
<Placemark><description>node_id=2356357100</description><name></name><styleUrl>style1</styleUrl><Point><altitudeMode>clampToGround</altitudeMode><coordinates>17.3409231,49.0842073</coordinates></Point></Placemark>
<Placemark><description>node_id=2356357102</description><name></name><styleUrl>style1</styleUrl><Point><altitudeMode>clampToGround</altitudeMode><coordinates>17.3388781,49.0843280</coordinates></Point></Placemark>
<Placemark><description>node_id=2356357105</description><name></name><styleUrl>style1</styleUrl><Point><altitudeMode>clampToGround</altitudeMode><coordinates>17.3368751,49.0844199</coordinates></Point></Placemark>
<Placemark><description>node_id=2356357109</description><name></name><styleUrl>style1</styleUrl><Point><altitudeMode>clampToGround</altitudeMode><coordinates>17.3375692,49.0845160</coordinates></Point></Placemark>
<Placemark><description>node_id=2356357110</description><name></name><styleUrl>style1</styleUrl><Point><altitudeMode>clampToGround</altitudeMode><coordinates>17.3378966,49.0845805</coordinates></Point></Placemark>
<Placemark><description>node_id=2356357113</description><name></name><styleUrl>style1</styleUrl><Point><altitudeMode>clampToGround</altitudeMode><coordinates>17.3385275,49.0847080</coordinates></Point></Placemark>
<Placemark><description>node_id=2356357120</description><name></name><styleUrl>style1</styleUrl><Point><altitudeMode>clampToGround</altitudeMode><coordinates>17.3394880,49.0848958</coordinates></Point></Placemark>
<Placemark><description>node_id=2356361084</description><name></name><styleUrl>style1</styleUrl><Point><altitudeMode>clampToGround</altitudeMode><coordinates>17.3369205,49.0842989</coordinates></Point></Placemark>
<Placemark><description>node_id=2356361088</description><name></name><styleUrl>style1</styleUrl><Point><altitudeMode>clampToGround</altitudeMode><coordinates>17.3367837,49.0844940</coordinates></Point></Placemark>
<Placemark><description>node_id=2356361090</description><name></name><styleUrl>style1</styleUrl><Point><altitudeMode>clampToGround</altitudeMode><coordinates>17.3370449,49.0845040</coordinates></Point></Placemark>
<Placemark><description>node_id=2356361093</description><name></name><styleUrl>style1</styleUrl><Point><altitudeMode>clampToGround</altitudeMode><coordinates>17.3373615,49.0845078</coordinates></Point></Placemark>
<Placemark><description>node_id=3118295475</description><name></name><styleUrl>style1</styleUrl><Point><altitudeMode>clampToGround</altitudeMode><coordinates>17.3377948,49.0812739</coordinates></Point></Placemark>
<Placemark><description>node_id=3118295477</description><name></name><styleUrl>style1</styleUrl><Point><altitudeMode>clampToGround</altitudeMode><coordinates>17.3381268,49.0813319</coordinates></Point></Placemark>
<Placemark><description>node_id=3118295478</description><name></name><styleUrl>style1</styleUrl><Point><altitudeMode>clampToGround</altitudeMode><coordinates>17.3370199,49.0814432</coordinates></Point></Placemark>
<Placemark><description>node_id=3118295487</description><name></name><styleUrl>style1</styleUrl><Point><altitudeMode>clampToGround</altitudeMode><coordinates>17.3397004,49.0825790</coordinates></Point></Placemark>
<Placemark><description>node_id=3118295492</description><name></name><styleUrl>style1</styleUrl><Point><altitudeMode>clampToGround</altitudeMode><coordinates>17.3389057,49.0830851</coordinates></Point></Placemark>
<Placemark><description>node_id=3118301730</description><name></name><styleUrl>style1</styleUrl><Point><altitudeMode>clampToGround</altitudeMode><coordinates>17.3357865,49.0836896</coordinates></Point></Placemark>
<Placemark><description>node_id=3118301745</description><name></name><styleUrl>style1</styleUrl><Point><altitudeMode>clampToGround</altitudeMode><coordinates>17.3362197,49.0837791</coordinates></Point></Placemark>
<Placemark><description>node_id=3118301748</description><name></name><styleUrl>style1</styleUrl><Point><altitudeMode>clampToGround</altitudeMode><coordinates>17.3362908,49.0837941</coordinates></Point></Placemark>
<Placemark><description>node_id=3118301756</description><name></name><styleUrl>style1</styleUrl><Point><altitudeMode>clampToGround</altitudeMode><coordinates>17.3389560,49.0838995</coordinates></Point></Placemark>
<Placemark><description>node_id=3118301759</description><name></name><styleUrl>style1</styleUrl><Point><altitudeMode>clampToGround</altitudeMode><coordinates>17.3369889,49.0839383</coordinates></Point></Placemark>
<Placemark><description>node_id=3118301771</description><name></name><styleUrl>style1</styleUrl><Point><altitudeMode>clampToGround</altitudeMode><coordinates>17.3398760,49.0840902</coordinates></Point></Placemark>
<Placemark><description>node_id=3118301775</description><name></name><styleUrl>style1</styleUrl><Point><altitudeMode>clampToGround</altitudeMode><coordinates>17.3379362,49.0841323</coordinates></Point></Placemark>
<Placemark><description>node_id=3118301779</description><name></name><styleUrl>style1</styleUrl><Point><altitudeMode>clampToGround</altitudeMode><coordinates>17.3376413,49.0843737</coordinates></Point></Placemark>
<Placemark><description>node_id=3118301784</description><name></name><styleUrl>style1</styleUrl><Point><altitudeMode>clampToGround</altitudeMode><coordinates>17.3396848,49.0844940</coordinates></Point></Placemark>
<Placemark><description>node_id=3118301795</description><name></name><styleUrl>style1</styleUrl><Point><altitudeMode>clampToGround</altitudeMode><coordinates>17.3379339,49.0845147</coordinates></Point></Placemark>
<Placemark><description>node_id=3118301804</description><name></name><styleUrl>style1</styleUrl><Point><altitudeMode>clampToGround</altitudeMode><coordinates>17.3385681,49.0846307</coordinates></Point></Placemark>
<Placemark><description>node_id=3618170346</description><name></name><styleUrl>style1</styleUrl><Point><altitudeMode>clampToGround</altitudeMode><coordinates>17.3365902,49.0836885</coordinates></Point></Placemark>
<Placemark><description>node_id=3618172499</description><name></name><styleUrl>style1</styleUrl><Point><altitudeMode>clampToGround</altitudeMode><coordinates>17.3364424,49.0840074</coordinates></Point></Placemark>
<Placemark><description>node_id=3618172500</description><name></name><styleUrl>style1</styleUrl><Point><altitudeMode>clampToGround</altitudeMode><coordinates>17.3379971,49.0841426</coordinates></Point></Placemark>
<Placemark><description>node_id=3618172557</description><name></name><styleUrl>style1</styleUrl><Point><altitudeMode>clampToGround</altitudeMode><coordinates>17.3378179,49.0847112</coordinates></Point></Placemark>
<Placemark><description>node_id=5001865890</description><name></name><styleUrl>style1</styleUrl><Point><altitudeMode>clampToGround</altitudeMode><coordinates>17.3422176,49.0841256</coordinates></Point></Placemark>
<Placemark><description>node_id=5996074411</description><name></name><styleUrl>style1</styleUrl><Point><altitudeMode>clampToGround</altitudeMode><coordinates>17.3376352,49.0851520</coordinates></Point></Placemark>
<Placemark><description>node_id=5996074431</description><name></name><styleUrl>style1</styleUrl><Point><altitudeMode>clampToGround</altitudeMode><coordinates>17.3374882,49.0837553</coordinates></Point></Placemark>
<Placemark><description>node_id=5996074434</description><name></name><styleUrl>style1</styleUrl><Point><altitudeMode>clampToGround</altitudeMode><coordinates>17.3367856,49.0836392</coordinates></Point></Placemark>
<Placemark><description>node_id=5996074450</description><name></name><styleUrl>style1</styleUrl><Point><altitudeMode>clampToGround</altitudeMode><coordinates>17.3373232,49.0837179</coordinates></Point></Placemark>
<Placemark><description>node_id=5996074452</description><name></name><styleUrl>style1</styleUrl><Point><altitudeMode>clampToGround</altitudeMode><coordinates>17.3373100,49.0836413</coordinates></Point></Placemark>
<Placemark><description>node_id=5996074453</description><name></name><styleUrl>style1</styleUrl><Point><altitudeMode>clampToGround</altitudeMode><coordinates>17.3373548,49.0835743</coordinates></Point></Placemark>
<Placemark><description>node_id=5996148804</description><name></name><styleUrl>style1</styleUrl><Point><altitudeMode>clampToGround</altitudeMode><coordinates>17.3389664,49.0814294</coordinates></Point></Placemark>
<Placemark><description>node_id=5996148835</description><name></name><styleUrl>style1</styleUrl><Point><altitudeMode>clampToGround</altitudeMode><coordinates>17.3386859,49.0811939</coordinates></Point></Placemark>
<Placemark><description>node_id=5996148857</description><name></name><styleUrl>style1</styleUrl><Point><altitudeMode>clampToGround</altitudeMode><coordinates>17.3381287,49.0812857</coordinates></Point></Placemark>
<Placemark><description>node_id=5996148858</description><name></name><styleUrl>style1</styleUrl><Point><altitudeMode>clampToGround</altitudeMode><coordinates>17.3392084,49.0821013</coordinates></Point></Placemark>
<Placemark><description>node_id=5996148862</description><name></name><styleUrl>style1</styleUrl><Point><altitudeMode>clampToGround</altitudeMode><coordinates>17.3386194,49.0820955</coordinates></Point></Placemark>
<Placemark><description>node_id=5996148867</description><name></name><styleUrl>style1</styleUrl><Point><altitudeMode>clampToGround</altitudeMode><coordinates>17.3425147,49.0837373</coordinates></Point></Placemark>
<Placemark><description>node_id=5996148868</description><name></name><styleUrl>style1</styleUrl><Point><altitudeMode>clampToGround</altitudeMode><coordinates>17.3423440,49.0837466</coordinates></Point></Placemark>
<Placemark><description>node_id=5996148997</description><name></name><styleUrl>style1</styleUrl><Point><altitudeMode>clampToGround</altitudeMode><coordinates>17.3405374,49.0847191</coordinates></Point></Placemark>
<Placemark><description>node_id=9707604173</description><name></name><styleUrl>style1</styleUrl><Point><altitudeMode>clampToGround</altitudeMode><coordinates>17.3378417,49.0838237</coordinates></Point></Placemark>
<Placemark><description>node_id=9707646307</description><name></name><styleUrl>style1</styleUrl><Point><altitudeMode>clampToGround</altitudeMode><coordinates>17.3378971,49.0807325</coordinates></Point></Placemark>
<Placemark><description>node_id=9707646308</description><name></name><styleUrl>style1</styleUrl><Point><altitudeMode>clampToGround</altitudeMode><coordinates>17.3379106,49.0806693</coordinates></Point></Placemark>
</Folder>
<Folder><name>navMapSegment</name>
<Placemark><name>way_id=-1947</name><styleUrl>lstyle1</styleUrl><LineString id="way-1947"><extrude>0</extrude><tessellate>0</tessellate><altitudeMode>clampToGround</altitudeMode>
<coordinates>17.3378966,49.0845805,0.0,17.3378726,49.0846204,0.0,17.3378179,49.0847112,0.0</coordinates></LineString></Placemark>
<Placemark><name>way_id=-2014</name><styleUrl>lstyle1</styleUrl><LineString id="way-2014"><extrude>0</extrude><tessellate>0</tessellate><altitudeMode>clampToGround</altitudeMode>
<coordinates>17.3376352,49.0851520,0.0,17.3373963,49.0851042,0.0</coordinates></LineString></Placemark>
<Placemark><name>way_id=-2209</name><styleUrl>lstyle1</styleUrl><LineString id="way-2209"><extrude>0</extrude><tessellate>0</tessellate><altitudeMode>clampToGround</altitudeMode>
<coordinates>17.3366803,49.0835023,0.0,17.3366912,49.0835047,0.0</coordinates></LineString></Placemark>
<Placemark><name>way_id=81660147</name><styleUrl>lstyle1</styleUrl><LineString id="way81660147"><extrude>0</extrude><tessellate>0</tessellate><altitudeMode>clampToGround</altitudeMode>
<coordinates>17.3362467,49.0846634,0.0,17.3362813,49.0845268,0.0,17.3363085,49.0844159,0.0,17.3363263,49.0843378,0.0,17.3363855,49.0841518,0.0,17.3363999,49.0841152,0.0,17.3364424,49.0840074,0.0</coordinates></LineString></Placemark>
<Placemark><name>way_id=81660160</name><styleUrl>lstyle1</styleUrl><LineString id="way81660160"><extrude>0</extrude><tessellate>0</tessellate><altitudeMode>clampToGround</altitudeMode>
<coordinates>17.3363085,49.0844159,0.0,17.3367837,49.0844940,0.0,17.3368751,49.0844199,0.0,17.3369205,49.0842989,0.0,17.3369973,49.0842795,0.0,17.3370466,49.0842417,0.0,17.3372254,49.0842800,0.0,17.3373570,49.0840141,0.0,17.3377719,49.0840980,0.0,17.3378282,49.0841115,0.0</coordinates></LineString></Placemark>
<Placemark><name>way_id=95741489</name><styleUrl>lstyle1</styleUrl><LineString id="way95741489"><extrude>0</extrude><tessellate>0</tessellate><altitudeMode>clampToGround</altitudeMode>
<coordinates>17.3363855,49.0841518,0.0,17.3363162,49.0841163,0.0,17.3362002,49.0840950,0.0,17.3360858,49.0840836,0.0,17.3359766,49.0840770,0.0,17.3359034,49.0841073,0.0,17.3358475,49.0841578,0.0,17.3358180,49.0843103,0.0,17.3357916,49.0844466,0.0,17.3358012,49.0844724,0.0,17.3358211,49.0844857,0.0,17.3359270,49.0845156,0.0,17.3359847,49.0845145,0.0,17.3360795,49.0844923,0.0,17.3362763,49.0844449,0.0,17.3363085,49.0844159,0.0</coordinates></LineString></Placemark>
<Placemark><name>way_id=226910647</name><styleUrl>lstyle1</styleUrl><LineString id="way226910647"><extrude>0</extrude><tessellate>0</tessellate><altitudeMode>clampToGround</altitudeMode>
<coordinates>17.3405935,49.0836909,0.0,17.3405406,49.0834315,0.0,17.3405365,49.0833818,0.0,17.3405297,49.0833464,0.0,17.3405395,49.0833061,0.0,17.3405243,49.0831606,0.0,17.3405647,49.0831025,0.0,17.3406160,49.0830447,0.0,17.3409546,49.0828563,0.0,17.3410293,49.0828849,0.0,17.3412380,49.0829332,0.0,17.3414526,49.0829792,0.0,17.3417750,49.0830940,0.0,17.3420957,49.0832502,0.0,17.3423341,49.0834170,0.0,17.3424760,49.0836784,0.0,17.3425147,49.0837373,0.0</coordinates></LineString></Placemark>
<Placemark><name>way_id=226910648</name><styleUrl>lstyle1</styleUrl><LineString id="way226910648"><extrude>0</extrude><tessellate>0</tessellate><altitudeMode>clampToGround</altitudeMode>
<coordinates>17.3375692,49.0845160,0.0,17.3377173,49.0845464,0.0</coordinates></LineString></Placemark>
<Placemark><name>way_id=226910649</name><styleUrl>lstyle1</styleUrl><LineString id="way226910649"><extrude>0</extrude><tessellate>0</tessellate><altitudeMode>clampToGround</altitudeMode>
<coordinates>17.3409546,49.0828563,0.0,17.3406890,49.0827317,0.0,17.3405326,49.0826151,0.0,17.3404733,49.0824597,0.0,17.3400795,49.0821135,0.0,17.3397979,49.0820173,0.0,17.3397751,49.0820375,0.0,17.3395270,49.0822578,0.0,17.3395368,49.0822886,0.0,17.3395535,49.0823207,0.0,17.3395880,49.0823869,0.0,17.3396791,49.0825252,0.0,17.3397004,49.0825790,0.0,17.3396698,49.0827110,0.0,17.3395786,49.0828514,0.0,17.3395190,49.0829164,0.0,17.3394278,49.0829695,0.0,17.3393031,49.0830097,0.0,17.3390206,49.0830437,0.0,17.3389057,49.0830851,0.0,17.3387433,49.0831988,0.0</coordinates></LineString></Placemark>
<Placemark><name>way_id=226910650</name><styleUrl>lstyle1</styleUrl><LineString id="way226910650"><extrude>0</extrude><tessellate>0</tessellate><altitudeMode>clampToGround</altitudeMode>
<coordinates>17.3387905,49.0842088,0.0,17.3388781,49.0843280,0.0</coordinates></LineString></Placemark>
<Placemark><name>way_id=226910651</name><styleUrl>lstyle1</styleUrl><LineString id="way226910651"><extrude>0</extrude><tessellate>0</tessellate><altitudeMode>clampToGround</altitudeMode>
<coordinates>17.3385275,49.0847080,0.0,17.3385681,49.0846307,0.0,17.3386930,49.0843923,0.0</coordinates></LineString></Placemark>
<Placemark><name>way_id=226910652</name><styleUrl>lstyle1</styleUrl><LineString id="way226910652"><extrude>0</extrude><tessellate>0</tessellate><altitudeMode>clampToGround</altitudeMode>
<coordinates>17.3361909,49.0834733,0.0,17.3362009,49.0834267,0.0,17.3361826,49.0833420,0.0,17.3361421,49.0832066,0.0,17.3361496,49.0831455,0.0,17.3361510,49.0830732,0.0,17.3362584,49.0828993,0.0,17.3362836,49.0827881,0.0,17.3362785,49.0826077,0.0,17.3362991,49.0825181,0.0,17.3363244,49.0824694,0.0,17.3367276,49.0820460,0.0,17.3368601,49.0818644,0.0,17.3369702,49.0816389,0.0,17.3370199,49.0814432,0.0,17.3371320,49.0814097,0.0,17.3374962,49.0812752,0.0,17.3376616,49.0812823,0.0,17.3377948,49.0812739,0.0,17.3378559,49.0812438,0.0,17.3380036,49.0812215,0.0,17.3381293,49.0812724,0.0,17.3381287,49.0812857,0.0,17.3381268,49.0813319,0.0,17.3382416,49.0814568,0.0,17.3383498,49.0816478,0.0,17.3383674,49.0817578,0.0,17.3383492,49.0818814,0.0,17.3382916,49.0820696,0.0,17.3383392,49.0822117,0.0,17.3382417,49.0824249,0.0,17.3381770,49.0826111,0.0,17.3381906,49.0827364,0.0,17.3382026,49.0828448,0.0,17.3381470,49.0829448,0.0,17.3380562,49.0829727,0.0,17.3379801,49.0830066,0.0,17.3379539,49.0830183,0.0,17.3378746,49.0830550,0.0,17.3378067,49.0831080,0.0,17.3377351,49.0832136,0.0,17.3377329,49.0833001,0.0,17.3377674,49.0834232,0.0,17.3377453,49.0834845,0.0,17.3376732,49.0835400,0.0,17.3376082,49.0835671,0.0,17.3375541,49.0835810,0.0,17.3374118,49.0835823,0.0,17.3374008,49.0835808,0.0,17.3373548,49.0835743,0.0,17.3370509,49.0835116,0.0,17.3367240,49.0834278,0.0</coordinates></LineString></Placemark>
<Placemark><name>way_id=226910653</name><styleUrl>lstyle1</styleUrl><LineString id="way226910653"><extrude>0</extrude><tessellate>0</tessellate><altitudeMode>clampToGround</altitudeMode>
<coordinates>17.3366310,49.0837291,0.0,17.3366520,49.0837927,0.0,17.3366415,49.0838342,0.0,17.3366407,49.0838674,0.0,17.3366185,49.0838926,0.0,17.3365985,49.0839180,0.0,17.3365732,49.0839407,0.0,17.3365204,49.0839899,0.0,17.3364424,49.0840074,0.0,17.3363814,49.0839651,0.0,17.3363913,49.0838909,0.0,17.3363663,49.0838533,0.0,17.3363689,49.0838124,0.0,17.3363988,49.0837764,0.0,17.3364497,49.0837526,0.0,17.3364908,49.0837047,0.0,17.3365902,49.0836885,0.0,17.3366310,49.0837291,0.0</coordinates></LineString></Placemark>
<Placemark><name>way_id=226910654</name><styleUrl>lstyle1</styleUrl><LineString id="way226910654"><extrude>0</extrude><tessellate>0</tessellate><altitudeMode>clampToGround</altitudeMode>
<coordinates>17.3391231,49.0835136,0.0,17.3389182,49.0835649,0.0,17.3386776,49.0836616,0.0,17.3384708,49.0838036,0.0</coordinates></LineString></Placemark>
<Placemark><name>way_id=226910655</name><styleUrl>lstyle1</styleUrl><LineString id="way226910655"><extrude>0</extrude><tessellate>0</tessellate><altitudeMode>clampToGround</altitudeMode>
<coordinates>17.3375667,49.0837576,0.0,17.3378417,49.0838237,0.0,17.3379076,49.0838396,0.0,17.3377719,49.0840980,0.0,17.3376413,49.0843737,0.0,17.3375692,49.0845160,0.0</coordinates></LineString></Placemark>
<Placemark><name>way_id=226910656</name><styleUrl>lstyle1</styleUrl><LineString id="way226910656"><extrude>0</extrude><tessellate>0</tessellate><altitudeMode>clampToGround</altitudeMode>
<coordinates>17.3376082,49.0835671,0.0,17.3375667,49.0837576,0.0,17.3374947,49.0837424,0.0,17.3374882,49.0837553,0.0,17.3373570,49.0840141,0.0</coordinates></LineString></Placemark>
<Placemark><name>way_id=226910657</name><styleUrl>lstyle1</styleUrl><LineString id="way226910657"><extrude>0</extrude><tessellate>0</tessellate><altitudeMode>clampToGround</altitudeMode>
<coordinates>17.3361909,49.0834733,0.0,17.3362361,49.0834817,0.0,17.3364290,49.0835157,0.0,17.3365464,49.0835201,0.0,17.3366672,49.0835246,0.0</coordinates></LineString></Placemark>
<Placemark><name>way_id=226910658</name><styleUrl>lstyle1</styleUrl><LineString id="way226910658"><extrude>0</extrude><tessellate>0</tessellate><altitudeMode>clampToGround</altitudeMode>
<coordinates>17.3395270,49.0822578,0.0,17.3393760,49.0821757,0.0</coordinates></LineString></Placemark>
<Placemark><name>way_id=226910659</name><styleUrl>lstyle1</styleUrl><LineString id="way226910659"><extrude>0</extrude><tessellate>0</tessellate><altitudeMode>clampToGround</altitudeMode>
<coordinates>17.3389560,49.0838995,0.0,17.3389179,49.0839607,0.0,17.3395418,49.0840961,0.0,17.3397244,49.0841357,0.0,17.3397127,49.0841593,0.0,17.3395599,49.0844680,0.0,17.3394852,49.0846250,0.0,17.3394026,49.0847986,0.0,17.3388397,49.0846853,0.0,17.3385681,49.0846307,0.0,17.3379339,49.0845147,0.0</coordinates></LineString></Placemark>
<Placemark><name>way_id=226910660</name><styleUrl>lstyle1</styleUrl><LineString id="way226910660"><extrude>0</extrude><tessellate>0</tessellate><altitudeMode>clampToGround</altitudeMode>
<coordinates>17.3414632,49.0838604,0.0,17.3414333,49.0838756,0.0,17.3413353,49.0839138,0.0,17.3411248,49.0839818,0.0,17.3411312,49.0840137,0.0,17.3410425,49.0841200,0.0,17.3409231,49.0842073,0.0,17.3406142,49.0843073,0.0,17.3403600,49.0844450,0.0,17.3400916,49.0845832,0.0</coordinates></LineString></Placemark>
<Placemark><name>way_id=226910661</name><styleUrl>lstyle1</styleUrl><LineString id="way226910661"><extrude>0</extrude><tessellate>0</tessellate><altitudeMode>clampToGround</altitudeMode>
<coordinates>17.3386153,49.0842728,0.0,17.3387905,49.0842088,0.0,17.3389179,49.0839607,0.0,17.3388412,49.0839472,0.0,17.3385508,49.0838840,0.0,17.3385115,49.0838754,0.0,17.3384796,49.0838425,0.0,17.3384708,49.0838036,0.0,17.3384469,49.0837982,0.0,17.3382711,49.0837585,0.0,17.3380836,49.0841571,0.0,17.3379339,49.0845147,0.0,17.3378966,49.0845805,0.0</coordinates></LineString></Placemark>
<Placemark><name>way_id=226910662</name><styleUrl>lstyle1</styleUrl><LineString id="way226910662"><extrude>0</extrude><tessellate>0</tessellate><altitudeMode>clampToGround</altitudeMode>
<coordinates>17.3411248,49.0839818,0.0,17.3411044,49.0839511,0.0,17.3410674,49.0839107,0.0,17.3409414,49.0838369,0.0,17.3408733,49.0837969,0.0,17.3406817,49.0837165,0.0,17.3405935,49.0836909,0.0,17.3404748,49.0837655,0.0,17.3404244,49.0838037,0.0,17.3403563,49.0838705,0.0,17.3402564,49.0839316,0.0,17.3401784,49.0840030,0.0,17.3400688,49.0840421,0.0,17.3399106,49.0840594,0.0,17.3398760,49.0840902,0.0,17.3396848,49.0844940,0.0,17.3394880,49.0848958,0.0</coordinates></LineString></Placemark>
<Placemark><name>way_id=226910663</name><styleUrl>lstyle1</styleUrl><LineString id="way226910663"><extrude>0</extrude><tessellate>0</tessellate><altitudeMode>clampToGround</altitudeMode>
<coordinates>17.3410995,49.0846242,0.0,17.3411832,49.0846053,0.0,17.3416089,49.0846137,0.0,17.3416883,49.0846048,0.0,17.3417674,49.0845862,0.0,17.3418810,49.0844309,0.0,17.3419077,49.0843898,0.0,17.3419062,49.0843123,0.0,17.3418429,49.0841887,0.0,17.3416861,49.0839549,0.0,17.3416446,49.0839194,0.0,17.3415897,49.0838890,0.0,17.3414632,49.0838604,0.0,17.3415691,49.0837657,0.0,17.3416614,49.0836673,0.0</coordinates></LineString></Placemark>
<Placemark><name>way_id=226911049</name><styleUrl>lstyle1</styleUrl><LineString id="way226911049"><extrude>0</extrude><tessellate>0</tessellate><altitudeMode>clampToGround</altitudeMode>
<coordinates>17.3368751,49.0844199,0.0,17.3370449,49.0845040,0.0,17.3367837,49.0844940,0.0</coordinates></LineString></Placemark>
<Placemark><name>way_id=226911050</name><styleUrl>lstyle1</styleUrl><LineString id="way226911050"><extrude>0</extrude><tessellate>0</tessellate><altitudeMode>clampToGround</altitudeMode>
<coordinates>17.3370449,49.0845040,0.0,17.3372280,49.0844903,0.0,17.3373615,49.0845078,0.0,17.3374110,49.0845490,0.0,17.3374149,49.0846277,0.0,17.3372051,49.0849798,0.0</coordinates></LineString></Placemark>
<Placemark><name>way_id=306823935</name><styleUrl>lstyle1</styleUrl><LineString id="way306823935"><extrude>0</extrude><tessellate>0</tessellate><altitudeMode>clampToGround</altitudeMode>
<coordinates>17.3377173,49.0845464,0.0,17.3378966,49.0845805,0.0,17.3385275,49.0847080,0.0,17.3394880,49.0848958,0.0,17.3395373,49.0848492,0.0,17.3396301,49.0848447,0.0,17.3397060,49.0848104,0.0,17.3397902,49.0847806,0.0,17.3399501,49.0847771,0.0,17.3401724,49.0847507,0.0,17.3402778,49.0847730,0.0</coordinates></LineString></Placemark>
<Placemark><name>way_id=306823949</name><styleUrl>lstyle1</styleUrl><LineString id="way306823949"><extrude>0</extrude><tessellate>0</tessellate><altitudeMode>clampToGround</altitudeMode>
<coordinates>17.3378282,49.0841115,0.0,17.3379362,49.0841323,0.0</coordinates></LineString></Placemark>
<Placemark><name>way_id=306823952</name><styleUrl>lstyle1</styleUrl><LineString id="way306823952"><extrude>0</extrude><tessellate>0</tessellate><altitudeMode>clampToGround</altitudeMode>
<coordinates>17.3380543,49.0837115,0.0,17.3381133,49.0837229,0.0</coordinates></LineString></Placemark>
<Placemark><name>way_id=306823955</name><styleUrl>lstyle1</styleUrl><LineString id="way306823955"><extrude>0</extrude><tessellate>0</tessellate><altitudeMode>clampToGround</altitudeMode>
<coordinates>17.3366407,49.0838674,0.0,17.3366636,49.0838708,0.0,17.3369889,49.0839383,0.0</coordinates></LineString></Placemark>
<Placemark><name>way_id=306823961</name><styleUrl>lstyle1</styleUrl><LineString id="way306823961"><extrude>0</extrude><tessellate>0</tessellate><altitudeMode>clampToGround</altitudeMode>
<coordinates>17.3362197,49.0837791,0.0,17.3359264,49.0837200,0.0</coordinates></LineString></Placemark>
<Placemark><name>way_id=306823964</name><styleUrl>lstyle1</styleUrl><LineString id="way306823964"><extrude>0</extrude><tessellate>0</tessellate><altitudeMode>clampToGround</altitudeMode>
<coordinates>17.3359264,49.0837200,0.0,17.3358127,49.0836953,0.0</coordinates></LineString></Placemark>
<Placemark><name>way_id=306823971</name><styleUrl>lstyle1</styleUrl><LineString id="way306823971"><extrude>0</extrude><tessellate>0</tessellate><altitudeMode>clampToGround</altitudeMode>
<coordinates>17.3381133,49.0837229,0.0,17.3382711,49.0837585,0.0</coordinates></LineString></Placemark>
<Placemark><name>way_id=306823976</name><styleUrl>lstyle1</styleUrl><LineString id="way306823976"><extrude>0</extrude><tessellate>0</tessellate><altitudeMode>clampToGround</altitudeMode>
<coordinates>17.3384508,49.0830750,0.0,17.3385269,49.0831058,0.0</coordinates></LineString></Placemark>
<Placemark><name>way_id=306823980</name><styleUrl>lstyle1</styleUrl><LineString id="way306823980"><extrude>0</extrude><tessellate>0</tessellate><altitudeMode>clampToGround</altitudeMode>
<coordinates>17.3393760,49.0821757,0.0,17.3393185,49.0821477,0.0</coordinates></LineString></Placemark>
<Placemark><name>way_id=306823985</name><styleUrl>lstyle1</styleUrl><LineString id="way306823985"><extrude>0</extrude><tessellate>0</tessellate><altitudeMode>clampToGround</altitudeMode>
<coordinates>17.3363689,49.0838124,0.0,17.3362908,49.0837941,0.0</coordinates></LineString></Placemark>
<Placemark><name>way_id=306823987</name><styleUrl>lstyle1</styleUrl><LineString id="way306823987"><extrude>0</extrude><tessellate>0</tessellate><altitudeMode>clampToGround</altitudeMode>
<coordinates>17.3372254,49.0842800,0.0,17.3376413,49.0843737,0.0</coordinates></LineString></Placemark>
<Placemark><name>way_id=306823996</name><styleUrl>lstyle1</styleUrl><LineString id="way306823996"><extrude>0</extrude><tessellate>0</tessellate><altitudeMode>clampToGround</altitudeMode>
<coordinates>17.3385269,49.0831058,0.0,17.3387433,49.0831988,0.0,17.3389135,49.0832566,0.0,17.3389949,49.0833014,0.0,17.3390459,49.0833662,0.0,17.3391231,49.0835136,0.0,17.3392141,49.0835449,0.0,17.3393623,49.0835766,0.0,17.3395177,49.0835926,0.0,17.3396372,49.0835859,0.0,17.3397671,49.0835642,0.0,17.3402035,49.0834145,0.0,17.3403358,49.0833753,0.0,17.3405297,49.0833464,0.0,17.3408047,49.0833901,0.0,17.3409295,49.0834223,0.0,17.3412406,49.0835290,0.0,17.3415968,49.0836518,0.0,17.3416614,49.0836673,0.0,17.3418362,49.0837036,0.0,17.3421109,49.0837344,0.0,17.3423332,49.0837478,0.0,17.3423440,49.0837466,0.0,17.3424333,49.0837366,0.0,17.3425147,49.0837373,0.0,17.3429582,49.0837414,0.0,17.3436223,49.0837661,0.0,17.3437876,49.0837853,0.0,17.3438511,49.0837927,0.0,17.3441122,49.0837927,0.0</coordinates></LineString></Placemark>
<Placemark><name>way_id=306823998</name><styleUrl>lstyle1</styleUrl><LineString id="way306823998"><extrude>0</extrude><tessellate>0</tessellate><altitudeMode>clampToGround</altitudeMode>
<coordinates>17.3378417,49.0838237,0.0,17.3378819,49.0837495,0.0,17.3379952,49.0836993,0.0,17.3380543,49.0837115,0.0</coordinates></LineString></Placemark>
<Placemark><name>way_id=306824000</name><styleUrl>lstyle1</styleUrl><LineString id="way306824000"><extrude>0</extrude><tessellate>0</tessellate><altitudeMode>clampToGround</altitudeMode>
<coordinates>17.3398760,49.0840902,0.0,17.3389560,49.0838995,0.0,17.3384708,49.0838036,0.0</coordinates></LineString></Placemark>
<Placemark><name>way_id=356355962</name><styleUrl>lstyle1</styleUrl><LineString id="way356355962"><extrude>0</extrude><tessellate>0</tessellate><altitudeMode>clampToGround</altitudeMode>
<coordinates>17.3365902,49.0836885,0.0,17.3366672,49.0835246,0.0,17.3366803,49.0835023,0.0,17.3367240,49.0834278,0.0,17.3367274,49.0833845,0.0,17.3367751,49.0832185,0.0,17.3369380,49.0829718,0.0,17.3370972,49.0828578,0.0,17.3373393,49.0827483,0.0,17.3374727,49.0827235,0.0,17.3376090,49.0827327,0.0,17.3378999,49.0828367,0.0,17.3381121,49.0829252,0.0,17.3381470,49.0829448,0.0,17.3384508,49.0830750,0.0</coordinates></LineString></Placemark>
<Placemark><name>way_id=356355967</name><styleUrl>lstyle1</styleUrl><LineString id="way356355967"><extrude>0</extrude><tessellate>0</tessellate><altitudeMode>clampToGround</altitudeMode>
<coordinates>17.3379971,49.0841426,0.0,17.3380836,49.0841571,0.0,17.3386153,49.0842728,0.0,17.3386930,49.0843923,0.0,17.3388781,49.0843280,0.0,17.3395599,49.0844680,0.0,17.3396848,49.0844940,0.0,17.3397614,49.0845100,0.0,17.3400916,49.0845832,0.0,17.3402796,49.0847456,0.0,17.3402778,49.0847730,0.0,17.3403822,49.0847700,0.0,17.3405374,49.0847191,0.0,17.3405973,49.0846994,0.0,17.3407702,49.0846807,0.0,17.3408831,49.0846914,0.0,17.3409596,49.0846893,0.0,17.3410995,49.0846242,0.0,17.3413348,49.0844640,0.0,17.3414873,49.0843496,0.0,17.3416357,49.0842663,0.0,17.3418429,49.0841887,0.0,17.3419235,49.0841596,0.0,17.3421419,49.0840870,0.0,17.3423440,49.0837466,0.0</coordinates></LineString></Placemark>
<Placemark><name>way_id=507633351</name><styleUrl>lstyle1</styleUrl><LineString id="way507633351"><extrude>0</extrude><tessellate>0</tessellate><altitudeMode>clampToGround</altitudeMode>
<coordinates>17.3358127,49.0836953,0.0,17.3357865,49.0836896,0.0</coordinates></LineString></Placemark>
<Placemark><name>way_id=511315414</name><styleUrl>lstyle1</styleUrl><LineString id="way511315414"><extrude>0</extrude><tessellate>0</tessellate><altitudeMode>clampToGround</altitudeMode>
<coordinates>17.3375692,49.0845160,0.0,17.3373615,49.0845078,0.0</coordinates></LineString></Placemark>
<Placemark><name>way_id=511315427</name><styleUrl>lstyle1</styleUrl><LineString id="way511315427"><extrude>0</extrude><tessellate>0</tessellate><altitudeMode>clampToGround</altitudeMode>
<coordinates>17.3359766,49.0840770,0.0,17.3358543,49.0840344,0.0,17.3358128,49.0839962,0.0,17.3358323,49.0839308,0.0,17.3358466,49.0838759,0.0,17.3358212,49.0838515,0.0,17.3357908,49.0838216,0.0,17.3357772,49.0837650,0.0,17.3357764,49.0837212,0.0,17.3357865,49.0836896,0.0,17.3358123,49.0836580,0.0,17.3358568,49.0836203,0.0,17.3359050,49.0835921,0.0,17.3359821,49.0835655,0.0,17.3360185,49.0835521,0.0,17.3360515,49.0834895,0.0,17.3360752,49.0834679,0.0,17.3361909,49.0834733,0.0</coordinates></LineString></Placemark>
<Placemark><name>way_id=511315429</name><styleUrl>lstyle1</styleUrl><LineString id="way511315429"><extrude>0</extrude><tessellate>0</tessellate><altitudeMode>clampToGround</altitudeMode>
<coordinates>17.3421419,49.0840870,0.0,17.3422176,49.0841256,0.0</coordinates></LineString></Placemark>
<Placemark><name>way_id=635735790</name><styleUrl>lstyle1</styleUrl><LineString id="way635735790"><extrude>0</extrude><tessellate>0</tessellate><altitudeMode>clampToGround</altitudeMode>
<coordinates>17.3373232,49.0837179,0.0,17.3374882,49.0837553,0.0</coordinates></LineString></Placemark>
<Placemark><name>way_id=635735791</name><styleUrl>lstyle1</styleUrl><LineString id="way635735791"><extrude>0</extrude><tessellate>0</tessellate><altitudeMode>clampToGround</altitudeMode>
<coordinates>17.3366912,49.0835047,0.0,17.3368388,49.0835363,0.0,17.3367856,49.0836392,0.0</coordinates></LineString></Placemark>
<Placemark><name>way_id=635735792</name><styleUrl>lstyle1</styleUrl><LineString id="way635735792"><extrude>0</extrude><tessellate>0</tessellate><altitudeMode>clampToGround</altitudeMode>
<coordinates>17.3373548,49.0835743,0.0,17.3373100,49.0836413,0.0,17.3373323,49.0836750,0.0,17.3373232,49.0837179,0.0,17.3372959,49.0837412,0.0,17.3372394,49.0837632,0.0,17.3371820,49.0837668,0.0,17.3371165,49.0837501,0.0,17.3370664,49.0837221,0.0,17.3370555,49.0836857,0.0,17.3370618,49.0836583,0.0,17.3370882,49.0836362,0.0,17.3371192,49.0836207,0.0,17.3371465,49.0836147,0.0,17.3371689,49.0836147,0.0,17.3371920,49.0836147,0.0,17.3372277,49.0836199,0.0,17.3372649,49.0836290,0.0,17.3373100,49.0836413,0.0</coordinates></LineString></Placemark>
<Placemark><name>way_id=635747453</name><styleUrl>lstyle1</styleUrl><LineString id="way635747453"><extrude>0</extrude><tessellate>0</tessellate><altitudeMode>clampToGround</altitudeMode>
<coordinates>17.3392084,49.0821013,0.0,17.3392711,49.0820028,0.0,17.3392925,49.0819554,0.0,17.3394156,49.0818674,0.0,17.3395443,49.0818349,0.0,17.3396855,49.0817498,0.0,17.3397498,49.0816145,0.0,17.3396550,49.0814902,0.0,17.3395782,49.0814451,0.0,17.3394574,49.0814636,0.0,17.3393309,49.0815634,0.0,17.3392699,49.0815634,0.0,17.3392360,49.0815509,0.0,17.3392135,49.0815272,0.0,17.3392202,49.0814799,0.0,17.3392948,49.0813371,0.0,17.3392598,49.0812661,0.0,17.3391875,49.0812698,0.0,17.3391051,49.0813356,0.0,17.3390305,49.0813933,0.0,17.3389664,49.0814294,0.0</coordinates></LineString></Placemark>
<Placemark><name>way_id=635747454</name><styleUrl>lstyle1</styleUrl><LineString id="way635747454"><extrude>0</extrude><tessellate>0</tessellate><altitudeMode>clampToGround</altitudeMode>
<coordinates>17.3386859,49.0811939,0.0,17.3387268,49.0812565,0.0,17.3387923,49.0813423,0.0,17.3389628,49.0814207,0.0,17.3389664,49.0814294,0.0,17.3389729,49.0814451,0.0,17.3389492,49.0816611,0.0,17.3389187,49.0816980,0.0,17.3388442,49.0817757,0.0,17.3388149,49.0818881,0.0,17.3387878,49.0819162,0.0,17.3386556,49.0820323,0.0,17.3386285,49.0820671,0.0,17.3386194,49.0820955,0.0</coordinates></LineString></Placemark>
<Placemark><name>way_id=635747455</name><styleUrl>lstyle1</styleUrl><LineString id="way635747455"><extrude>0</extrude><tessellate>0</tessellate><altitudeMode>clampToGround</altitudeMode>
<coordinates>17.3381287,49.0812857,0.0,17.3382746,49.0812683,0.0,17.3386470,49.0812078,0.0,17.3386859,49.0811939,0.0,17.3387078,49.0811861,0.0,17.3387619,49.0811157,0.0,17.3387818,49.0810898,0.0,17.3387641,49.0810652,0.0,17.3386782,49.0810309,0.0,17.3382785,49.0809422,0.0,17.3382096,49.0809126,0.0,17.3381453,49.0808778,0.0,17.3380177,49.0807809,0.0,17.3379318,49.0807388,0.0,17.3378971,49.0807325,0.0,17.3378788,49.0807292,0.0,17.3378505,49.0807314,0.0,17.3377884,49.0807595,0.0,17.3377365,49.0807928,0.0,17.3377060,49.0808238,0.0,17.3375490,49.0810265,0.0,17.3374858,49.0810701,0.0,17.3373616,49.0811478,0.0,17.3371787,49.0812410,0.0,17.3370951,49.0812883,0.0,17.3370454,49.0813697,0.0,17.3370199,49.0814432,0.0</coordinates></LineString></Placemark>
<Placemark><name>way_id=635747456</name><styleUrl>lstyle1</styleUrl><LineString id="way635747456"><extrude>0</extrude><tessellate>0</tessellate><altitudeMode>clampToGround</altitudeMode>
<coordinates>17.3383392,49.0822117,0.0,17.3384934,49.0821530,0.0,17.3386194,49.0820955,0.0,17.3387161,49.0820890,0.0,17.3389619,49.0820803,0.0,17.3390951,49.0820803,0.0,17.3392084,49.0821013,0.0,17.3393185,49.0821477,0.0</coordinates></LineString></Placemark>
<Placemark><name>way_id=635747463</name><styleUrl>lstyle1</styleUrl><LineString id="way635747463"><extrude>0</extrude><tessellate>0</tessellate><altitudeMode>clampToGround</altitudeMode>
<coordinates>17.3405243,49.0831606,0.0,17.3404970,49.0831065,0.0,17.3404486,49.0830756,0.0,17.3402584,49.0829883,0.0,17.3400587,49.0828468,0.0,17.3399724,49.0827990,0.0,17.3399132,49.0826264,0.0,17.3398603,49.0825942,0.0,17.3397534,49.0825778,0.0,17.3397004,49.0825790,0.0</coordinates></LineString></Placemark>
<Placemark><name>way_id=635747464</name><styleUrl>lstyle1</styleUrl><LineString id="way635747464"><extrude>0</extrude><tessellate>0</tessellate><altitudeMode>clampToGround</altitudeMode>
<coordinates>17.3409231,49.0842073,0.0,17.3408476,49.0842833,0.0,17.3407766,49.0843823,0.0,17.3407249,49.0844693,0.0,17.3406833,49.0845370,0.0,17.3405890,49.0846472,0.0,17.3405374,49.0847191,0.0</coordinates></LineString></Placemark>
<Placemark><name>way_id=688959037</name><styleUrl>lstyle1</styleUrl><LineString id="way688959037"><extrude>0</extrude><tessellate>0</tessellate><altitudeMode>clampToGround</altitudeMode>
<coordinates>17.3389057,49.0830851,0.0,17.3389761,49.0828264,0.0,17.3390928,49.0826790,0.0,17.3392762,49.0824483,0.0,17.3393991,49.0823487,0.0,17.3395270,49.0822578,0.0</coordinates></LineString></Placemark>
<Placemark><name>way_id=800115521</name><styleUrl>lstyle1</styleUrl><LineString id="way800115521"><extrude>0</extrude><tessellate>0</tessellate><altitudeMode>clampToGround</altitudeMode>
<coordinates>17.3373963,49.0851042,0.0,17.3372940,49.0850837,0.0</coordinates></LineString></Placemark>
<Placemark><name>way_id=800115522</name><styleUrl>lstyle1</styleUrl><LineString id="way800115522"><extrude>0</extrude><tessellate>0</tessellate><altitudeMode>clampToGround</altitudeMode>
<coordinates>17.3372940,49.0850837,0.0,17.3371583,49.0850566,0.0,17.3372051,49.0849798,0.0</coordinates></LineString></Placemark>
<Placemark><name>way_id=911854651</name><styleUrl>lstyle1</styleUrl><LineString id="way911854651"><extrude>0</extrude><tessellate>0</tessellate><altitudeMode>clampToGround</altitudeMode>
<coordinates>17.3369205,49.0842989,0.0,17.3368549,49.0842661,0.0,17.3368242,49.0842258,0.0,17.3368435,49.0841773,0.0,17.3368925,49.0841594,0.0,17.3369438,49.0841609,0.0,17.3369950,49.0841766,0.0,17.3370258,49.0841945,0.0,17.3370466,49.0842417,0.0</coordinates></LineString></Placemark>
<Placemark><name>way_id=1056482054</name><styleUrl>lstyle1</styleUrl><LineString id="way1056482054"><extrude>0</extrude><tessellate>0</tessellate><altitudeMode>clampToGround</altitudeMode>
<coordinates>17.3381268,49.0813319,0.0,17.3380753,49.0813631,0.0,17.3379923,49.0813820,0.0,17.3379017,49.0813631,0.0,17.3378413,49.0813210,0.0,17.3377948,49.0812739,0.0</coordinates></LineString></Placemark>
<Placemark><name>way_id=1056482055</name><styleUrl>lstyle1</styleUrl><LineString id="way1056482055"><extrude>0</extrude><tessellate>0</tessellate><altitudeMode>clampToGround</altitudeMode>
<coordinates>17.3378971,49.0807325,0.0,17.3379106,49.0806693,0.0</coordinates></LineString></Placemark>
</Folder>
</Folder></kml>
